{
  "norad_id": 67357,
  "name": "STARLINK-36456",
  "history": [
    {
      "epoch": "2026-03-28T18:45:49.461408Z",
      "apogee_km": 483.68935611609777,
      "perigee_km": 482.33798388013565,
      "latitude_deg": 3.3900088453527696e-05,
      "longitude_deg": 11.597211681935992,
      "height_km": 482.7113136779642,
      "semi_major_axis_km": 6861.150669998116,
      "eccentricity": 9.848e-05,
      "inclination_deg": 43.0002,
      "raan_deg": 119.2506,
      "arg_perigee_deg": 276.6908,
      "mean_anomaly_deg": 83.3832,
      "mean_motion_rev_day": 15.27591831
    },
    {
      "epoch": "2026-03-30T02:08:56.040000Z",
      "apogee_km": 483.5349405642273,
      "perigee_km": 482.3544228500723,
      "latitude_deg": 5.428459574896131e-06,
      "longitude_deg": -107.85647170484742,
      "height_km": 482.6409797300777,
      "semi_major_axis_km": 6861.081681707149,
      "eccentricity": 8.603e-05,
      "inclination_deg": 43.0002,
      "raan_deg": 111.8633,
      "arg_perigee_deg": 277.7855,
      "mean_anomaly_deg": 82.2899,
      "mean_motion_rev_day": 15.27614871
    },
    {
      "epoch": "2026-03-30T11:33:52.822368Z",
      "apogee_km": 483.88079892934365,
      "perigee_km": 482.27993969273666,
      "latitude_deg": 1.002403985603592e-05,
      "longitude_deg": 108.30634839811496,
      "height_km": 482.58386200722003,
      "semi_major_axis_km": 6861.21736931104,
      "eccentricity": 0.00011666,
      "inclination_deg": 42.9993,
      "raan_deg": 109.6494,
      "arg_perigee_deg": 289.9352,
      "mean_anomaly_deg": 70.1374,
      "mean_motion_rev_day": 15.27569556
    },
    {
      "epoch": "2026-03-30T17:50:30.918624Z",
      "apogee_km": 483.57969746646995,
      "perigee_km": 482.6114403263473,
      "latitude_deg": 8.827691373868549e-08,
      "longitude_deg": 12.412906249861354,
      "height_km": 482.5961198946054,
      "semi_major_axis_km": 6861.232568896408,
      "eccentricity": 7.056e-05,
      "inclination_deg": 42.9985,
      "raan_deg": 108.1725,
      "arg_perigee_deg": 304.6561,
      "mean_anomaly_deg": 55.4224,
      "mean_motion_rev_day": 15.2756448
    }
  ]
}